OBJECT_NAME,OBJECT_ID,EPOCH,MEAN_MOTION,ECCENTRICITY,INCLINATION,RA_OF_ASC_NODE,ARG_OF_PERICENTER,MEAN_ANOMALY,EPHEMERIS_TYPE,CLASSIFICATION_TYPE,NORAD_CAT_ID,ELEMENT_SET_NO,REV_AT_EPOCH,BSTAR,MEAN_MOTION_DOT,MEAN_MOTION_DDOT
PROBA-1,2001-049B,2026-06-16T06:34:13.721952,15.07493377,.00564001,97.9596,175.7742,124.8381,235.8169,0,U,26958,999,34348,.12413413E-3,.1881E-4,0
CUTE-1 (CO-55),2003-031E,2026-06-16T06:20:48.283872,14.24335232,.00094679,98.6736,175.8349,180.6624,179.4544,0,U,27844,999,19154,.12106764E-3,.236E-5,0
CUBESAT XI-IV (CO-57),2003-031J,2026-06-15T23:18:41.130432,14.23620242,.00089443,98.6765,175.2591,200.7616,159.3200,0,U,27848,999,19120,.10701839E-3,.2E-5,0
APRIZESAT 4,2009-041D,2026-06-16T04:16:31.221696,14.83878253,.00424655,98.1413,242.4785,326.3943,33.4578,0,U,35684,999,91121,.75794489E-4,.579E-5,0
APRIZESAT 3,2009-041F,2026-06-16T05:30:37.266336,14.96238642,.00627764,98.2059,320.4075,70.8400,289.9601,0,U,35686,999,91623,.13531615E-3,.152E-4,0
PROBA-2,2009-059B,2026-06-16T01:42:39.347136,14.54862034,.00119838,98.2449,350.4395,285.9683,74.0194,0,U,36037,999,88136,.45041512E-4,.148E-5,0
APRIZESAT 5,2011-044E,2026-06-16T06:20:17.623968,14.81074351,.00524165,98.2453,100.2783,7.3044,352.8919,0,U,37792,999,79865,.1297316E-3,.971E-5,0
APRIZESAT 6,2011-044F,2026-06-15T23:53:28.156128,14.76914317,.00444963,98.2365,77.4707,89.7335,333.6407,0,U,37793,999,79697,.98906232E-4,.651E-5,0
PROBA-V,2013-021A,2026-06-16T04:55:51.197088,14.23596789,.00050987,98.3583,145.8605,125.7196,234.4459,0,U,39159,999,68097,.38241136E-4,.46E-6,0
APRIZESAT 7,2013-066A,2026-06-16T03:32:39.359328,14.91561995,.00349162,97.7709,120.3825,212.7929,147.1123,0,U,39416,999,68107,.11149233E-3,.1072E-4,0
APRIZESAT 8,2013-066K,2026-06-16T03:10:50.624832,14.87651062,.00444676,97.8220,114.6150,290.1674,69.4762,0,U,39425,999,67951,.95186872E-4,.824E-5,0
BUGSAT-1 (TITA),2014-033E,2026-06-16T05:51:17.794080,15.15579418,.00279341,98.0436,259.7370,181.4201,178.6956,0,U,40014,999,65569,.27971442E-3,.5284E-4,0
SAUDISAT 4,2014-033G,2026-06-16T07:22:30.949824,14.79543832,.00461767,97.7581,313.4724,76.7702,283.8655,0,U,40016,999,64594,.81373001E-4,.568E-5,0
APRIZESAT 9,2014-033J,2026-06-16T07:48:20.513952,14.74213513,.00656229,97.9059,300.5449,201.9666,157.8728,0,U,40018,999,64343,.94735912E-4,.594E-5,0
APRIZESAT 10,2014-033K,2026-06-16T07:26:51.846720,14.70881790,.0077397,97.9648,294.2893,276.6969,82.5434,0,U,40019,999,64212,.63926488E-4,.355E-5,0
TECHDEMOSAT-1 (TDS-1),2014-037H,2026-06-16T05:35:13.984800,15.13281865,.00044491,98.3811,159.3511,270.2647,89.8072,0,U,40076,999,64808,.35426717E-3,.6228E-4,0
TECHNOSAT,2017-042E,2026-06-16T07:38:31.819776,15.04956334,.00188893,97.4281,325.0087,96.9439,263.3938,0,U,42829,999,48657,.24767798E-3,.3464E-4,0
FLYING LAPTOP,2017-042G,2026-06-16T07:39:19.351008,15.01139426,.00195388,97.4680,322.8843,124.5322,235.7751,0,U,42831,999,48632,.18322224E-3,.2299E-4,0
HAWK-A,2018-099H,2026-06-16T02:25:36.358464,15.24632636,.0033127,97.3913,219.3512,289.9439,69.8231,0,U,43765,999,41293,.21836873E-3,.5398E-4,0
HAWK-B,2018-099AN,2026-06-16T01:20:08.185056,15.22815777,.00305709,97.3963,218.7238,309.1246,50.7273,0,U,43794,999,41286,.20226288E-3,.4718E-4,0
HAWK-C,2018-099AT,2026-06-16T03:29:39.661152,15.28091165,.00387836,97.3889,220.3022,289.6441,70.0615,0,U,43799,999,41375,.21936675E-3,.6065E-4,0
SALSAT,2020-068K,2026-06-15T23:14:07.134432,15.29785416,.00081144,97.8844,169.9584,313.3675,46.6887,0,U,46495,999,31517,.23912148E-3,.682E-4,0
HAWK-2C,2021-006CT,2026-06-16T02:36:58.865760,15.34652777,.00065761,97.2274,211.4403,189.5044,170.6077,0,U,47502,999,29933,.1656016E-3,.5486E-4,0
HAWK-2A,2021-006CW,2026-06-16T02:40:35.121504,15.34667448,.00059887,97.2317,212.1200,192.6997,167.4096,0,U,47505,999,29933,.16358225E-3,.542E-4,0
HAWK-2B,2021-006CZ,2026-06-16T02:34:14.671200,15.34754544,.00065768,97.2187,210.4491,190.9114,169.1988,0,U,47508,999,29933,.17860561E-3,.5942E-4,0
HAWK-3B,2021-059BE,2026-06-15T19:03:31.029696,15.69456462,.00032943,97.6654,3.3703,337.9580,22.1539,0,U,48931,999,27763,.31562549E-3,.37015E-3,0
HAWK-3C,2021-059BX,2026-06-16T07:17:32.580384,15.69492751,.00035861,97.6773,9.6127,337.0302,23.0798,0,U,48948,999,27771,.31658317E-3,.37185E-3,0
HAWK-3A,2021-059CG,2026-06-15T12:55:37.980192,15.69448522,.000377,97.6715,5.9805,342.6233,17.4898,0,U,48957,999,27759,.33997373E-3,.39884E-3,0
HAWK-5C,2022-057Y,2026-06-15T22:44:32.283168,15.51355304,.0005098,97.6593,326.5340,86.7842,273.3993,0,U,52754,999,22615,.26481E-3,.15482E-3,0
HAWK-5B,2022-057AA,2026-06-15T22:44:19.289472,15.51356518,.00057464,97.6603,324.8830,79.6792,280.5107,0,U,52756,999,22615,.26676005E-3,.156E-3,0
